{
  "type": "FeatureCollection",
  "features": [
    {
      "type": "Feature",
      "properties": {
        "norad_id": 38827,
        "name": "FENGYUN 1C DEB",
        "group": "fengyun-1c-debris",
        "lat": -0.34994617140677636,
        "lon": 22.868320443011147,
        "alt_km": 774.4296323174622,
        "timestamp": "2025-12-26T07:29:18.745821+00:00",
        "meta_object_name": "FENGYUN 1C DEB",
        "meta_object_id": "1999-025EVT",
        "meta_epoch": "2025-12-22T07:57:58.637952",
        "meta_mean_motion": 14.32909061,
        "meta_eccentricity": 0.02157809,
        "meta_inclination": 98.3849,
        "meta_ra_of_asc_node": 18.9611,
        "meta_arg_of_pericenter": 284.2489,
        "meta_mean_anomaly": 73.4818,
        "meta_ephemeris_type": 0,
        "meta_classification_type": "U",
        "meta_norad_cat_id": 38827,
        "meta_element_set_no": 999,
        "meta_rev_at_epoch": 61197,
        "meta_bstar": 0.00094975527,
        "meta_mean_motion_dot": 3.312e-05,
        "meta_mean_motion_ddot": 0,
        "tle_line1": "1 38827U 99025EVT 25356.33192868  .00003312  00000+0  94976-3 0  9990",
        "tle_line2": "2 38827  98.3849  18.9611 0215780 284.2489  73.4818 14.32909061611977"
      },
      "geometry": {
        "type": "Point",
        "coordinates": [
          22.868320443011147,
          -0.34994617140677636
        ]
      }
    },
    {
      "type": "Feature",
      "properties": {
        "norad_id": 38829,
        "name": "FENGYUN 1C DEB",
        "group": "fengyun-1c-debris",
        "lat": -42.141163205736454,
        "lon": -172.11746660998168,
        "alt_km": 887.2279125554569,
        "timestamp": "2025-12-26T07:29:18.745831+00:00",
        "meta_object_name": "FENGYUN 1C DEB",
        "meta_object_id": "1999-025EVV",
        "meta_epoch": "2025-12-24T06:43:17.691168",
        "meta_mean_motion": 14.09239954,
        "meta_eccentricity": 0.00407032,
        "meta_inclination": 98.7492,
        "meta_ra_of_asc_node": 13.9194,
        "meta_arg_of_pericenter": 358.0019,
        "meta_mean_anomaly": 2.0983,
        "meta_ephemeris_type": 0,
        "meta_classification_type": "U",
        "meta_norad_cat_id": 38829,
        "meta_element_set_no": 999,
        "meta_rev_at_epoch": 64295,
        "meta_bstar": 0.00056817994,
        "meta_mean_motion_dot": 9.53e-06,
        "meta_mean_motion_ddot": 0,
        "tle_line1": "1 38829U 99025EVV 25358.28006587  .00000953  00000+0  56818-3 0  9991",
        "tle_line2": "2 38829  98.7492  13.9194 0040703 358.0019   2.0983 14.09239954642952"
      },
      "geometry": {
        "type": "Point",
        "coordinates": [
          -172.11746660998168,
          -42.141163205736454
        ]
      }
    },
    {
      "type": "Feature",
      "properties": {
        "norad_id": 38832,
        "name": "FENGYUN 1C DEB",
        "group": "fengyun-1c-debris",
        "lat": 69.85749650617377,
        "lon": 18.52926591500956,
        "alt_km": 847.2064809651647,
        "timestamp": "2025-12-26T07:29:18.745841+00:00",
        "meta_object_name": "FENGYUN 1C DEB",
        "meta_object_id": "1999-025EVY",
        "meta_epoch": "2025-12-24T02:09:06.186816",
        "meta_mean_motion": 14.04532991,
        "meta_eccentricity": 0.00836335,
        "meta_inclination": 99.2651,
        "meta_ra_of_asc_node": 42.6878,
        "meta_arg_of_pericenter": 11.1486,
        "meta_mean_anomaly": 349.1508,
        "meta_ephemeris_type": 0,
        "meta_classification_type": "U",
        "meta_norad_cat_id": 38832,
        "meta_element_set_no": 999,
        "meta_rev_at_epoch": 63917,
        "meta_bstar": 0.00096745057,
        "meta_mean_motion_dot": 1.547e-05,
        "meta_mean_motion_ddot": 0,
        "tle_line1": "1 38832U 99025EVY 25358.08965494  .00001547  00000+0  96745-3 0  9997",
        "tle_line2": "2 38832  99.2651  42.6878 0083633  11.1486 349.1508 14.04532991639171"
      },
      "geometry": {
        "type": "Point",
        "coordinates": [
          18.52926591500956,
          69.85749650617377
        ]
      }
    },
    {
      "type": "Feature",
      "properties": {
        "norad_id": 39537,
        "name": "FENGYUN 1C DEB",
        "group": "fengyun-1c-debris",
        "lat": 5.973384507221995,
        "lon": 144.75117621605588,
        "alt_km": 887.2121735290993,
        "timestamp": "2025-12-26T07:29:18.745851+00:00",
        "meta_object_name": "FENGYUN 1C DEB",
        "meta_object_id": "1999-025EWE",
        "meta_epoch": "2025-12-19T15:51:43.070688",
        "meta_mean_motion": 13.84193589,
        "meta_eccentricity": 0.0177797,
        "meta_inclination": 99.1526,
        "meta_ra_of_asc_node": 139.2359,
        "meta_arg_of_pericenter": 322.4144,
        "meta_mean_anomaly": 36.4691,
        "meta_ephemeris_type": 0,
        "meta_classification_type": "U",
        "meta_norad_cat_id": 39537,
        "meta_element_set_no": 999,
        "meta_rev_at_epoch": 59352,
        "meta_bstar": 0.0010435,
        "meta_mean_motion_dot": 1.271e-05,
        "meta_mean_motion_ddot": 0,
        "tle_line1": "1 39537U 99025EWE 25353.66091517  .00001271  00000+0  10435-2 0  9990",
        "tle_line2": "2 39537  99.1526 139.2359 0177797 322.4144  36.4691 13.84193589593525"
      },
      "geometry": {
        "type": "Point",
        "coordinates": [
          144.75117621605588,
          5.973384507221995
        ]
      }
    },
    {
      "type": "Feature",
      "properties": {
        "norad_id": 39541,
        "name": "FENGYUN 1C DEB",
        "group": "fengyun-1c-debris",
        "lat": 52.69888146591181,
        "lon": 30.603154488696116,
        "alt_km": 770.0554975014593,
        "timestamp": "2025-12-26T07:29:18.745863+00:00",
        "meta_object_name": "FENGYUN 1C DEB",
        "meta_object_id": "1999-025EWJ",
        "meta_epoch": "2025-12-14T09:31:50.250432",
        "meta_mean_motion": 14.20397112,
        "meta_eccentricity": 0.00718166,
        "meta_inclination": 98.681,
        "meta_ra_of_asc_node": 30.4764,
        "meta_arg_of_pericenter": 68.7411,
        "meta_mean_anomaly": 292.1416,
        "meta_ephemeris_type": 0,
        "meta_classification_type": "U",
        "meta_norad_cat_id": 39541,
        "meta_element_set_no": 999,
        "meta_rev_at_epoch": 59026,
        "meta_bstar": 0.00071004371,
        "meta_mean_motion_dot": 1.519e-05,
        "meta_mean_motion_ddot": 0,
        "tle_line1": "1 39541U 99025EWJ 25348.39710938  .00001519  00000+0  71004-3 0  9999",
        "tle_line2": "2 39541  98.6810  30.4764 0071816  68.7411 292.1416 14.20397112590267"
      },
      "geometry": {
        "type": "Point",
        "coordinates": [
          30.603154488696116,
          52.69888146591181
        ]
      }
    },
    {
      "type": "Feature",
      "properties": {
        "norad_id": 39543,
        "name": "FENGYUN 1C DEB",
        "group": "fengyun-1c-debris",
        "lat": -63.80424570942316,
        "lon": 48.2536878582723,
        "alt_km": 1253.3841678119306,
        "timestamp": "2025-12-26T07:29:18.745873+00:00",
        "meta_object_name": "FENGYUN 1C DEB",
        "meta_object_id": "1999-025EWL",
        "meta_epoch": "2025-12-22T19:42:07.379136",
        "meta_mean_motion": 13.70212175,
        "meta_eccentricity": 0.03390824,
        "meta_inclination": 99.0408,
        "meta_ra_of_asc_node": 26.0838,
        "meta_arg_of_pericenter": 115.719,
        "meta_mean_anomaly": 247.9374,
        "meta_ephemeris_type": 0,
        "meta_classification_type": "U",
        "meta_norad_cat_id": 39543,
        "meta_element_set_no": 999,
        "meta_rev_at_epoch": 49323,
        "meta_bstar": 0.00074325166,
        "meta_mean_motion_dot": 9.45e-06,
        "meta_mean_motion_ddot": 0,
        "tle_line1": "1 39543U 99025EWL 25356.82091874  .00000945  00000+0  74325-3 0  9990",
        "tle_line2": "2 39543  99.0408  26.0838 0339082 115.7190 247.9374 13.70212175493238"
      },
      "geometry": {
        "type": "Point",
        "coordinates": [
          48.2536878582723,
          -63.80424570942316
        ]
      }
    },
    {
      "type": "Feature",
      "properties": {
        "norad_id": 39544,
        "name": "FENGYUN 1C DEB",
        "group": "fengyun-1c-debris",
        "lat": -81.2524773503946,
        "lon": -30.466815398733186,
        "alt_km": 862.9393069479147,
        "timestamp": "2025-12-26T07:29:18.745883+00:00",
        "meta_object_name": "FENGYUN 1C DEB",
        "meta_object_id": "1999-025EWM",
        "meta_epoch": "2025-12-18T10:16:20.672256",
        "meta_mean_motion": 14.05533723,
        "meta_eccentricity": 0.00544071,
        "meta_inclination": 98.7417,
        "meta_ra_of_asc_node": 231.3683,
        "meta_arg_of_pericenter": 353.4562,
        "meta_mean_anomaly": 6.589,
        "meta_ephemeris_type": 0,
        "meta_classification_type": "U",
        "meta_norad_cat_id": 39544,
        "meta_element_set_no": 999,
        "meta_rev_at_epoch": 56935,
        "meta_bstar": 0.00032895311,
        "meta_mean_motion_dot": 4.99e-06,
        "meta_mean_motion_ddot": 0,
        "tle_line1": "1 39544U 99025EWM 25352.42801704  .00000499  00000+0  32895-3 0  9994",
        "tle_line2": "2 39544  98.7417 231.3683 0054407 353.4562   6.5890 14.05533723569356"
      },
      "geometry": {
        "type": "Point",
        "coordinates": [
          -30.466815398733186,
          -81.2524773503946
        ]
      }
    }
  ]
}